LEMUR-2-FINNIAN         
1 66782U 25276DX  26165.47928266  .00006754  00000+0  54214-3 0  9995
2 66782  97.5283 236.5565 0008847  97.3513 262.8717 15.00347814 19592
LEMUR-2-STARLIGHT       
1 66783U 25276DY  26165.43320610  .00005128  00000+0  42670-3 0  9998
2 66783  97.5275 236.1657 0015248 135.5868 224.6581 14.99017594 29786
LEMUR-2-TARTIFLETTE     
1 66784U 25276DZ  26165.43173730  .00005524  00000+0  45905-3 0  9992
2 66784  97.5280 236.1708 0013959 142.0163 218.2047 14.99048902 29781
LEMUR-2-VUKASIN         
1 66785U 25276EA  26165.16100334  .00005944  00000+0  47808-3 0  9993
2 66785  97.5317 236.1980 0006251 131.2126 228.9637 15.00339077 29693
LEMUR-2-HOTSPUR-TOM     
1 66786U 25276EB  26165.42410286  .00006483  00000+0  53915-3 0  9998
2 66786  97.5272 236.1449 0015565 135.8459 224.4010 14.98933185 29716
LEMUR-2-MYRA            
1 66787U 25276EC  26165.45901779  .00007153  00000+0  57491-3 0  9992
2 66787  97.5225 236.4293 0016260 150.4811 209.7335 15.00209331 29802
LEMUR-2 FIKRETDENGIZ    
1 67363U 26004A   26165.51229170  .00003218  00000+0  35354-3 0  9990
2 67363  97.8008 164.1113 0009890 140.7550 219.4386 14.88307690 22883
TWILIGHT-1 OBJECT B     
1 67364U 26004B   26165.46837984  .00001643  00000+0  18623-3 0  9993
2 67364  97.8061 164.0846 0009799 132.0010 228.2042 14.87693819 22885
LEMUR-2-MARIO-SOUSA     
1 67365U 26004C   26165.49624851  .00003883  00000+0  42342-3 0  9997
2 67365  97.7985 164.0920 0009455 140.9281 219.2621 14.88495918 22895
LEMUR-2-SONNENBLUME     
1 67367U 26004E   26164.95643322  .00002888  00000+0  31801-3 0  9995
2 67367  97.7979 163.5463 0008939 144.4357 215.7457 14.88301780 22818
LEMUR-2-WOBLER          
1 67368U 26004F   26165.48813747  .00003662  00000+0  39961-3 0  9991
2 67368  97.8033 164.1892 0009443 132.9470 227.2540 14.88501688 22891
LEMUR-2-GRAM-E-SUE      
1 67370U 26004H   26165.47870650  .00002576  00000+0  28324-3 0  9993
2 67370  97.7967 164.0752 0008045 143.5336 216.6430 14.88461138 22894
LEMUR-2-KATIE           
1 67387U 26004AA  26165.46884328  .00003565  00000+0  37505-3 0  9997
2 67387  97.8028 164.5158 0004829  99.1844 260.9920 14.90032545 22909
LEMUR-2-HCS-BAZUS       
1 67388U 26004AB  26165.46793703  .00005008  00000+0  52423-3 0  9994
2 67388  97.8013 164.4959 0004371  95.5591 264.6125 14.90045530 22909
