OBJECT_NAME,OBJECT_ID,EPOCH,MEAN_MOTION,ECCENTRICITY,INCLINATION,RA_OF_ASC_NODE,ARG_OF_PERICENTER,MEAN_ANOMALY,EPHEMERIS_TYPE,CLASSIFICATION_TYPE,NORAD_CAT_ID,ELEMENT_SET_NO,REV_AT_EPOCH,BSTAR,MEAN_MOTION_DOT,MEAN_MOTION_DDOT
LEMUR-2-FINNIAN,2025-276DX,2026-06-14T11:30:10.021824,15.00347814,.0008847,97.5283,236.5565,97.3513,262.8717,0,U,66782,999,1959,.54214E-3,.6754E-4,0
LEMUR-2-STARLIGHT,2025-276DY,2026-06-14T10:23:49.007040,14.99017594,.0015248,97.5275,236.1657,135.5868,224.6581,0,U,66783,999,2978,.4267E-3,.5128E-4,0
LEMUR-2-TARTIFLETTE,2025-276DZ,2026-06-14T10:21:42.102720,14.99048902,.0013959,97.5280,236.1708,142.0163,218.2047,0,U,66784,999,2978,.45905E-3,.5524E-4,0
LEMUR-2-VUKASIN,2025-276EA,2026-06-14T03:51:50.688576,15.00339077,.00062517,97.5317,236.1980,131.2126,228.9637,0,U,66785,999,2969,.47807914E-3,.5944E-4,0
LEMUR-2-HOTSPUR-TOM,2025-276EB,2026-06-14T10:10:42.487104,14.98933185,.0015565,97.5272,236.1449,135.8459,224.4010,0,U,66786,999,2971,.53915E-3,.6483E-4,0
LEMUR-2-MYRA,2025-276EC,2026-06-14T11:00:59.137056,15.00209331,.001626,97.5225,236.4293,150.4811,209.7335,0,U,66787,999,2980,.57491E-3,.7153E-4,0
LEMUR-2 FIKRETDENGIZ,2026-004A,2026-06-14T12:17:42.002880,14.88307690,.000989,97.8008,164.1113,140.7550,219.4386,0,U,67363,999,2288,.35354E-3,.3218E-4,0
TWILIGHT-1 OBJECT B,2026-004B,2026-06-14T11:14:28.018176,14.87693819,.0009799,97.8061,164.0846,132.0010,228.2042,0,U,67364,999,2288,.18623E-3,.1643E-4,0
LEMUR-2-MARIO-SOUSA,2026-004C,2026-06-14T11:54:35.871264,14.88495918,.0009455,97.7985,164.0920,140.9281,219.2621,0,U,67365,999,2289,.42342E-3,.3883E-4,0
LEMUR-2-SONNENBLUME,2026-004E,2026-06-13T22:57:15.830208,14.88301780,.00089396,97.7979,163.5463,144.4357,215.7457,0,U,67367,999,2281,.31801206E-3,.2888E-4,0
LEMUR-2-WOBLER,2026-004F,2026-06-14T11:42:55.077408,14.88501688,.0009443,97.8033,164.1892,132.9470,227.2540,0,U,67368,999,2289,.39961E-3,.3662E-4,0
LEMUR-2-GRAM-E-SUE,2026-004H,2026-06-14T11:29:20.241600,14.88461138,.0008045,97.7967,164.0752,143.5336,216.6430,0,U,67370,999,2289,.28324E-3,.2576E-4,0
LEMUR-2-KATIE,2026-004AA,2026-06-14T11:15:08.059392,14.90032545,.0004829,97.8028,164.5158,99.1844,260.9920,0,U,67387,999,2290,.37505E-3,.3565E-4,0
LEMUR-2-HCS-BAZUS,2026-004AB,2026-06-14T11:13:49.759392,14.90045530,.0004371,97.8013,164.4959,95.5591,264.6125,0,U,67388,999,2290,.52423E-3,.5008E-4,0
